{
"type": "FeatureCollection",
"name": "bidang",
"crs": { "type": "name", "properties": { "name": "urn:ogc:def:crs:OGC:1.3:CRS84" } },
"features": [
{ "type": "Feature", "properties": { "fid": 1 }, "geometry": { "type": "Polygon", "coordinates": [ [ [ 112.923957362495727, 0.880660899391358 ], [ 112.924010170727215, 0.880632609267342 ], [ 112.923972450561863, 0.880596775110255 ], [ 112.923938502413037, 0.880610920172263 ], [ 112.923938502413037, 0.880610920172263 ], [ 112.923957362495727, 0.880660899391358 ] ] ] } },
{ "type": "Feature", "properties": { "fid": 2 }, "geometry": { "type": "Polygon", "coordinates": [ [ [ 112.924032802826432, 0.880546795891159 ], [ 112.924000740685884, 0.880566598977971 ], [ 112.92397999459493, 0.88052510679608 ], [ 112.924006398710688, 0.880519448771277 ], [ 112.924032802826432, 0.880546795891159 ] ] ] } },
{ "type": "Feature", "properties": { "fid": 3 }, "geometry": { "type": "Polygon", "coordinates": [ [ [ 112.923878150148482, 0.880615635192932 ], [ 112.923891352206354, 0.880589231077184 ], [ 112.923806481834305, 0.880593946097853 ], [ 112.92379705179296, 0.880627894246672 ], [ 112.923878150148482, 0.880615635192932 ] ] ] } }
]
}
